NORAD_CAT_ID,OBJECT_NAME,OBJECT_TYPE,EPOCH,MEAN_MOTION,ECCENTRICITY,INCLINATION,RA_OF_ASC_NODE,ARG_OF_PERICENTER,MEAN_ANOMALY,BSTAR,MEAN_MOTION_DOT,MEAN_MOTION_DDOT,TLE_LINE0,TLE_LINE1,TLE_LINE2,SEMIMAJOR_AXIS,PERIOD,APOGEE,PERIGEE,DECAYED
53030.0,STARLINK-4160,PAYLOAD,2024-02-09 21:24:21,15.08830551,0.0001214,53.2153,250.6897,76.4889,283.6238,5.7706e-05,6.3e-06,0.0,0 STARLINK-4160,1 53030U 22076AW  24040.89192011  .00000630  00000-0  57706-4 0  9997,2 53030  53.2153 250.6897 0001214  76.4889 283.6238 15.08830551 88430,6917.909,95.438,540.614,538.934,0.0
53030.0,STARLINK-4160,PAYLOAD,2024-02-10 21:15:07,15.08846761,0.00013,53.216,246.2286,92.6413,267.4728,0.00016831,2.392e-05,0.0,0 STARLINK-4160,1 53030U 22076AW  24041.88550787  .00002392  00000-0  16831-3 0  9995,2 53030  53.2160 246.2286 0001300  92.6413 267.4728 15.08846761 89053,6917.86,95.437,540.624,538.825,0.0
53030.0,STARLINK-4160,PAYLOAD,2024-02-11 13:08:59,15.08840743,0.0001278,53.2161,243.2545,111.2767,248.8362,8.487e-05,1.063e-05,0.0,0 STARLINK-4160,1 53030U 22076AW  24042.54791300  .00001063  00000-0  84870-4 0  9990,2 53030  53.2161 243.2545 0001278 111.2767 248.8362 15.08840743 88682,6917.878,95.438,540.627,538.859,0.0
53030.0,STARLINK-4160,PAYLOAD,2024-02-11 19:30:32,15.0884021,0.0001369,53.2159,242.0663,94.7704,265.3444,8.8207e-05,1.116e-05,0.0,0 STARLINK-4160,1 53030U 22076AW  24042.81287320  .00001116  00000-0  88207-4 0  9999,2 53030  53.2159 242.0663 0001369  94.7704 265.3444 15.08840210 89195,6917.88,95.438,540.692,538.798,0.0
53030.0,STARLINK-4160,PAYLOAD,2024-02-12 12:59:46,15.0884489,0.0001176,53.2155,238.7951,104.7086,255.4037,2.7982e-05,1.58e-06,0.0,0 STARLINK-4160,1 53030U 22076AW  24043.54151008  .00000158  00000-0  27982-4 0  9991,2 53030  53.2155 238.7951 0001176 104.7086 255.4037 15.08844890 88830,6917.865,95.437,540.544,538.917,0.0
53030.0,STARLINK-4160,PAYLOAD,2024-02-12 19:21:18,15.08850512,0.0001332,53.2162,237.6061,94.8989,265.2155,-2.6795e-05,-7.14e-06,0.0,0 STARLINK-4160,1 53030U 22076AW  24043.80646819 -.00000714  00000-0 -26795-4 0  9990,2 53030  53.2162 237.6061 0001332  94.8989 265.2155 15.08850512 88875,6917.848,95.437,540.635,538.792,0.0
53030.0,STARLINK-4160,PAYLOAD,2024-02-13 12:50:33,15.08837905,0.000146,53.2162,234.3363,87.6992,272.4168,1.6648e-05,-2.3e-07,0.0,0 STARLINK-4160,1 53030U 22076AW  24044.53511493 -.00000023  00000-0  16648-4 0  9998,2 53030  53.2162 234.3363 0001460  87.6992 272.4168 15.08837905 88987,6917.887,95.438,540.762,538.742,0.0
53030.0,STARLINK-4160,PAYLOAD,2024-02-13 19:12:06,15.08837882,0.0001391,53.2167,233.1466,92.9184,267.1967,4.7862e-06,-2.12e-06,0.0,0 STARLINK-4160,1 53030U 22076AW  24044.80007504 -.00000212  00000-0  47862-5 0  9994,2 53030  53.2167 233.1466 0001391  92.9184 267.1967 15.08837882 89497,6917.887,95.438,540.714,538.79,0.0
53030.0,STARLINK-4160,PAYLOAD,2024-02-14 12:41:20,15.08841552,0.0001382,53.2168,229.8755,92.285,267.83,5.7157e-05,6.22e-06,0.0,0 STARLINK-4160,1 53030U 22076AW  24045.52871084  .00000622  00000-0  57157-4 0  9997,2 53030  53.2168 229.8755 0001382  92.2850 267.8300 15.08841552 89132,6917.876,95.437,540.697,538.785,0.0
53030.0,STARLINK-4160,PAYLOAD,2024-02-14 19:02:52,15.08846674,0.0001352,53.2164,228.6853,92.8335,267.2812,9.6156e-05,1.243e-05,0.0,0 STARLINK-4160,1 53030U 22076AW  24045.79366607  .00001243  00000-0  96156-4 0  9998,2 53030  53.2164 228.6853 0001352  92.8335 267.2812 15.08846674 89643,6917.86,95.437,540.66,538.79,0.0
53030.0,STARLINK-4160,PAYLOAD,2024-02-15 18:53:40,15.08832137,0.0001442,53.217,224.2267,95.6397,264.4759,1.882e-05,1.2e-07,0.0,0 STARLINK-4160,1 53030U 22076AW  24046.78727997  .00000012  00000-0  18820-4 0  9996,2 53030  53.2170 224.2267 0001442  95.6397 264.4759 15.08832137 89794,6917.904,95.438,540.767,538.772,0.0
53030.0,STARLINK-4160,PAYLOAD,2024-02-15 20:29:04,15.08833259,0.0001432,53.217,223.9289,94.7734,265.3422,2.4721e-05,1.05e-06,0.0,0 STARLINK-4160,1 53030U 22076AW  24046.85351917  .00000105  00000-0  24721-4 0  9999,2 53030  53.2170 223.9289 0001432  94.7734 265.3422 15.08833259 89331,6917.901,95.438,540.757,538.775,0.0
53030.0,STARLINK-4160,PAYLOAD,2024-02-16 04:26:00,15.08831667,0.0001368,53.2166,222.4405,89.105,271.0099,-9.6116e-06,-4.41e-06,0.0,0 STARLINK-4160,1 53030U 22076AW  24047.18472261 -.00000441  00000-0 -96116-5 0  9995,2 53030  53.2166 222.4405 0001368  89.1050 271.0099 15.08831667 89387,6917.906,95.438,540.717,538.824,0.0
53030.0,STARLINK-4160,PAYLOAD,2024-02-16 20:19:50,15.0884233,0.0001421,53.2169,219.4669,92.8616,267.2539,7.3997e-07,-2.76e-06,0.0,0 STARLINK-4160,1 53030U 22076AW  24047.84711739 -.00000276  00000-0  73997-6 0  9992,2 53030  53.2169 219.4669 0001421  92.8616 267.2539 15.08842330 89483,6917.873,95.437,540.721,538.755,0.0
53030.0,STARLINK-4160,PAYLOAD,2024-02-17 04:16:46,15.08843227,0.0001435,53.2169,217.9802,89.6307,270.4849,-2.6938e-05,-7.17e-06,0.0,0 STARLINK-4160,1 53030U 22076AW  24048.17831758 -.00000717  00000-0 -26938-4 0  9995,2 53030  53.2169 217.9802 0001435  89.6307 270.4849 15.08843227 90007,6917.871,95.437,540.728,538.743,0.0
53030.0,STARLINK-4160,PAYLOAD,2024-02-17 20:10:37,15.0884382,0.0001467,53.2168,215.0061,84.533,275.583,0.0001341,1.847e-05,0.0,0 STARLINK-4160,1 53030U 22076AW  24048.84071432  .00001847  00000-0  13410-3 0  9997,2 53030  53.2168 215.0061 0001467  84.5330 275.5830 15.08843820 89639,6917.869,95.437,540.749,538.719,0.0
53030.0,STARLINK-4160,PAYLOAD,2024-02-18 10:29:06,15.08826441,0.0001548,53.2171,212.3283,85.764,274.3529,0.00026735,3.968e-05,0.0,0 STARLINK-4160,1 53030U 22076AW  24049.43688238  .00003968  00000-0  26735-3 0  9991,2 53030  53.2171 212.3283 0001548  85.7640 274.3529 15.08826441 90191,6917.922,95.438,540.858,538.716,0.0
53030.0,STARLINK-4160,PAYLOAD,2024-02-18 16:50:38,15.08842923,0.0001389,53.2159,211.1394,85.2512,274.8639,0.00011346,1.518e-05,0.0,0 STARLINK-4160,1 53030U 22076AW  24049.70183502  .00001518  00000-0  11346-3 0  9996,2 53030  53.2159 211.1394 0001389  85.2512 274.8639 15.08842923 90238,6917.871,95.437,540.697,538.776,0.0
53030.0,STARLINK-4160,PAYLOAD,2024-02-19 03:58:20,15.08843834,0.0001336,53.2161,209.0584,83.7069,276.4076,6.3016e-05,7.15e-06,0.0,0 STARLINK-4160,1 53030U 22076AW  24050.16551474  .00000715  00000-0  63016-4 0  9995,2 53030  53.2161 209.0584 0001336  83.7069 276.4076 15.08843834 89839,6917.869,95.437,540.658,538.809,0.0
53030.0,STARLINK-4160,PAYLOAD,2024-02-19 19:52:12,15.08841647,0.0001547,53.2176,206.0838,93.0117,267.1052,-5.0986e-05,-1.099e-05,0.0,0 STARLINK-4160,1 53030U 22076AW  24050.82792013 -.00001099  00000-0 -50986-4 0  9994,2 53030  53.2176 206.0838 0001547  93.0117 267.1052 15.08841647 90402,6917.875,95.437,540.811,538.67,0.0
53030.0,STARLINK-4160,PAYLOAD,2024-02-20 03:49:08,15.08832393,0.0001594,53.2181,204.5946,96.3922,263.7251,-6.3124e-05,-1.292e-05,0.0,0 STARLINK-4160,1 53030U 22076AW  24051.15912640 -.00001292  00000-0 -63124-4 0  9994,2 53030  53.2181 204.5946 0001594  96.3922 263.7251 15.08832393 90459,6917.904,95.438,540.871,538.666,0.0
53030.0,STARLINK-4160,PAYLOAD,2024-02-20 14:56:50,15.08855123,0.0001959,53.2178,202.5132,90.4871,269.6345,-0.00035664,-5.962e-05,0.0,0 STARLINK-4160,1 53030U 22076AW  24051.62280197 -.00005962  00000-0 -35664-3 0  9996,2 53030  53.2178 202.5132 0001959  90.4871 269.6345 15.08855123 90054,6917.834,95.437,541.054,538.344,0.0
53030.0,STARLINK-4160,PAYLOAD,2024-02-20 19:42:59,15.08833311,0.0001566,53.2181,201.6212,105.5329,254.5836,1.5692e-05,-3.8e-07,0.0,0 STARLINK-4160,1 53030U 22076AW  24051.82152584 -.00000038  00000-0  15692-4 0  9994,2 53030  53.2181 201.6212 0001566 105.5329 254.5836 15.08833311 90083,6917.901,95.438,540.849,538.682,0.0
53030.0,STARLINK-4160,PAYLOAD,2024-02-21 14:47:36,15.0884181,0.0001605,53.2177,198.0535,98.0522,262.0652,0.00013245,1.821e-05,0.0,0 STARLINK-4160,1 53030U 22076AW  24052.61639727  .00001821  00000-0  13245-3 0  9992,2 53030  53.2177 198.0535 0001605  98.0522 262.0652 15.08841810 90207,6917.875,95.437,540.85,538.63,0.0
53030.0,STARLINK-4160,PAYLOAD,2024-02-21 16:22:59,15.08842694,0.0001419,53.2167,197.7571,91.1447,268.9708,0.00015281,2.145e-05,0.0,0 STARLINK-4160,1 53030U 22076AW  24052.68263671  .00002145  00000-0  15281-3 0  9992,2 53030  53.2167 197.7571 0001419  91.1447 268.9708 15.08842694 90685,6917.872,95.437,540.719,538.756,0.0
53030.0,STARLINK-4160,PAYLOAD,2024-02-22 09:52:14,15.08834069,0.0001588,53.2178,194.4888,92.3817,267.7357,9.7915e-05,1.27e-05,0.0,0 STARLINK-4160,1 53030U 22076AW  24053.41128447  .00001270  00000-0  97915-4 0  9998,2 53030  53.2178 194.4888 0001588  92.3817 267.7357 15.08834069 90799,6917.899,95.438,540.862,538.665,0.0
53030.0,STARLINK-4160,PAYLOAD,2024-02-22 14:38:24,15.08838057,0.0001535,53.2176,193.5956,95.8415,264.2752,0.00010612,1.401e-05,0.0,0 STARLINK-4160,1 53030U 22076AW  24053.61000277  .00001401  00000-0  10612-3 0  9994,2 53030  53.2176 193.5956 0001535  95.8415 264.2752 15.08838057 90351,6917.886,95.438,540.813,538.689,0.0
53030.0,STARLINK-4160,PAYLOAD,2024-02-22 16:13:47,15.08840239,0.0001468,53.2175,193.2977,88.3244,271.7916,0.00012393,1.685e-05,0.0,0 STARLINK-4160,1 53030U 22076AW  24053.67624090  .00001685  00000-0  12393-3 0  9997,2 53030  53.2175 193.2977 0001468  88.3244 271.7916 15.08840239 90363,6917.88,95.438,540.76,538.729,0.0
53030.0,STARLINK-4160,PAYLOAD,2024-02-23 14:29:11,15.08837488,0.0001508,53.218,189.1405,100.078,260.0382,-9.5776e-05,-1.812e-05,0.0,0 STARLINK-4160,1 53030U 22076AW  24054.60361095 -.00001812  00000-0 -95776-4 0  9995,2 53030  53.2180 189.1405 0001508 100.0780 260.0382 15.08837488 90507,6917.888,95.438,540.796,538.71,0.0
53030.0,STARLINK-4160,PAYLOAD,2024-02-23 17:39:57,15.08842148,0.0001411,53.2175,188.5418,89.2958,270.8196,-8.1908e-05,-1.591e-05,0.0,0 STARLINK-4160,1 53030U 22076AW  24054.73608712 -.00001591  00000-0 -81908-4 0  9995,2 53030  53.2175 188.5418 0001411  89.2958 270.8196 15.08842148 90990,6917.874,95.437,540.715,538.763,0.0
